NORAD_CAT_ID,OBJECT_NAME,OBJECT_TYPE,EPOCH,MEAN_MOTION,ECCENTRICITY,INCLINATION,RA_OF_ASC_NODE,ARG_OF_PERICENTER,MEAN_ANOMALY,BSTAR,MEAN_MOTION_DOT,MEAN_MOTION_DDOT,TLE_LINE0,TLE_LINE1,TLE_LINE2,SEMIMAJOR_AXIS,PERIOD,APOGEE,PERIGEE,DECAYED
56776.0,STARLINK-6274,PAYLOAD,2023-09-29 13:22:51,15.69925496,0.0003168,69.9988,72.3104,275.7643,84.3192,2.8899e-05,3.264e-05,0.0,0 STARLINK-6274,1 56776U 23078K   23272.55753902  .00003264  00000-0  28899-4 0  9998,2 56776  69.9988  72.3104 0003168 275.7643  84.3192 15.69925496 19082,6737.247,91.724,361.247,356.978,0.0
56776.0,STARLINK-6274,PAYLOAD,2023-09-29 22:33:22,15.69927101,0.0003498,69.9966,71.2369,270.5647,89.5148,4.4807e-06,3.26e-06,0.0,0 STARLINK-6274,1 56776U 23078K   23272.93984145  .00000326  00000-0  44807-5 0  9999,2 56776  69.9966  71.2369 0003498 270.5647  89.5148 15.69927101 19401,6737.243,91.724,361.464,356.751,0.0
56776.0,STARLINK-6274,PAYLOAD,2023-09-30 18:26:09,15.69918114,0.0003306,69.998,68.9084,270.8845,89.1972,1.8764e-05,2.043e-05,0.0,0 STARLINK-6274,1 56776U 23078K   23273.76816273  .00002043  00000-0  18764-4 0  9997,2 56776  69.9980  68.9084 0003306 270.8845  89.1972 15.69918114 19534,6737.268,91.725,361.361,356.906,0.0
56776.0,STARLINK-6274,PAYLOAD,2023-10-01 11:15:24,15.69940663,0.0002789,69.9988,66.9383,274.8904,85.1973,-6.3038e-06,-9.71e-06,0.0,0 STARLINK-6274,1 56776U 23078K   23274.46903824 -.00000971  00000-0 -63038-5 0  9999,2 56776  69.9988  66.9383 0002789 274.8904  85.1973 15.69940663 19649,6737.204,91.723,360.948,357.19,0.0
56776.0,STARLINK-6274,PAYLOAD,2023-10-01 12:47:10,15.69926966,0.0003712,69.9973,66.76,265.0898,94.9873,-3.0865e-05,-3.923e-05,0.0,0 STARLINK-6274,1 56776U 23078K   23274.53276541 -.00003923  00000-0 -30865-4 0  9997,2 56776  69.9973  66.7600 0003712 265.0898  94.9873 15.69926966 19393,6737.243,91.724,361.609,356.607,0.0
56776.0,STARLINK-6274,PAYLOAD,2023-10-01 18:54:11,15.69929062,0.0004079,69.9962,66.0427,275.9521,84.121,-3.2883e-05,-4.167e-05,0.0,0 STARLINK-6274,1 56776U 23078K   23274.78763098 -.00004167  00000-0 -32883-4 0  9995,2 56776  69.9962  66.0427 0004079 275.9521  84.1210 15.69929062 19690,6737.237,91.724,361.85,356.354,0.0
56776.0,STARLINK-6274,PAYLOAD,2023-10-01 20:25:56,15.69922781,0.0003725,70.0001,65.8618,268.5405,91.5364,-2.0849e-06,-4.64e-06,0.0,0 STARLINK-6274,1 56776U 23078K   23274.85134603 -.00000464  00000-0 -20849-5 0  9993,2 56776  70.0001  65.8618 0003725 268.5405  91.5364 15.69922781 19448,6737.255,91.724,361.63,356.61,0.0
56776.0,STARLINK-6274,PAYLOAD,2023-10-02 17:50:27,15.69930582,0.0003427,69.9984,63.3564,271.7122,88.3681,7.7332e-06,7.17e-06,0.0,0 STARLINK-6274,1 56776U 23078K   23275.74337597  .00000717  00000-0  77332-5 0  9997,2 56776  69.9984  63.3564 0003427 271.7122  88.3681 15.69930582 19847,6737.233,91.724,361.406,356.789,0.0
56776.0,STARLINK-6274,PAYLOAD,2023-10-03 12:11:29,15.69921846,0.0002967,69.9981,61.2049,273.4773,86.6083,6.4213e-06,5.59e-06,0.0,0 STARLINK-6274,1 56776U 23078K   23276.50798182  .00000559  00000-0  64213-5 0  9991,2 56776  69.9981  61.2049 0002967 273.4773  86.6083 15.69921846 19961,6737.258,91.724,361.122,357.124,0.0
56776.0,STARLINK-6274,PAYLOAD,2023-10-03 19:50:14,15.69933597,0.0002928,69.9998,60.3103,263.6529,96.4333,-8.4239e-06,-1.226e-05,0.0,0 STARLINK-6274,1 56776U 23078K   23276.82656071 -.00001226  00000-0 -84239-5 0  9990,2 56776  69.9998  60.3103 0002928 263.6529  96.4333 15.69933597 19757,6737.224,91.724,361.062,357.116,0.0
56776.0,STARLINK-6274,PAYLOAD,2023-10-04 12:39:30,15.69927527,0.0003339,69.9986,58.3386,266.183,93.8984,1.6468e-05,1.768e-05,0.0,0 STARLINK-6274,1 56776U 23078K   23277.52744078  .00001768  00000-0  16468-4 0  9990,2 56776  69.9986  58.3386 0003339 266.1830  93.8984 15.69927527 19865,6737.241,91.724,361.356,356.857,0.0
56776.0,STARLINK-6274,PAYLOAD,2023-10-04 18:46:32,15.69910381,0.0003108,69.9984,57.6232,268.5378,91.5461,-8.4827e-06,-1.232e-05,0.0,0 STARLINK-6274,1 56776U 23078K   23277.78232440 -.00001232  00000-0 -84827-5 0  9996,2 56776  69.9984  57.6232 0003108 268.5378  91.5461 15.69910381 20162,6737.29,91.725,361.249,357.061,0.0
56776.0,STARLINK-6274,PAYLOAD,2023-10-05 02:25:17,15.69919593,0.0003309,69.9985,56.7273,268.4471,91.6346,7.2912e-06,6.64e-06,0.0,0 STARLINK-6274,1 56776U 23078K   23278.10090009  .00000664  00000-0  72912-5 0  9994,2 56776  69.9985  56.7273 0003309 268.4471  91.6346 15.69919593 20217,6737.264,91.724,361.358,356.9,0.0
56776.0,STARLINK-6274,PAYLOAD,2023-10-05 10:04:02,15.6993625,0.0002752,69.9971,55.83,278.8495,81.2389,2.3144e-05,2.572e-05,0.0,0 STARLINK-6274,1 56776U 23078K   23278.41947195  .00002572  00000-0  23144-4 0  9997,2 56776  69.9971  55.8300 0002752 278.8495  81.2389 15.69936250 20261,6737.216,91.723,360.935,357.227,0.0
56776.0,STARLINK-6274,PAYLOAD,2023-10-05 13:07:33,15.69927259,0.0003166,69.9975,55.4743,269.9413,90.1419,6.365e-06,5.53e-06,0.0,0 STARLINK-6274,1 56776U 23078K   23278.54691272  .00000553  00000-0  63650-5 0  9997,2 56776  69.9975  55.4743 0003166 269.9413  90.1419 15.69927259 20029,6737.242,91.724,361.24,356.974,0.0
56776.0,STARLINK-6274,PAYLOAD,2023-10-05 19:14:34,15.69923749,0.0003573,69.9979,54.7556,273.2061,86.8726,-3.3084e-07,-2.53e-06,0.0,0 STARLINK-6274,1 56776U 23078K   23278.80178308 -.00000253  00000-0 -33084-6 0  9994,2 56776  69.9979  54.7556 0003573 273.2061  86.8726 15.69923749 20322,6737.252,91.724,361.524,356.71,0.0
56776.0,STARLINK-6274,PAYLOAD,2023-10-05 20:46:19,15.69927726,0.0003313,69.9983,54.5778,265.6443,94.4374,-5.4512e-06,-8.68e-06,0.0,0 STARLINK-6274,1 56776U 23078K   23278.86549796 -.00000868  00000-0 -54512-5 0  9993,2 56776  69.9983  54.5778 0003313 265.6443  94.4374 15.69927726 20077,6737.241,91.724,361.338,356.874,0.0
56776.0,STARLINK-6274,PAYLOAD,2023-10-06 12:03:50,15.69919426,0.0003026,69.998,52.7856,254.7146,105.3715,2.4702e-05,2.758e-05,0.0,0 STARLINK-6274,1 56776U 23078K   23279.50266396  .00002758  00000-0  24702-4 0  9992,2 56776  69.9980  52.7856 0003026 254.7146 105.3715 15.69919426 20171,6737.265,91.724,361.168,357.091,0.0
56776.0,STARLINK-6274,PAYLOAD,2023-10-06 21:14:20,15.69919575,0.0002957,69.9997,51.7097,259.0172,101.0692,3.9321e-05,4.517e-05,0.0,0 STARLINK-6274,1 56776U 23078K   23279.88496407  .00004517  00000-0  39321-4 0  9999,2 56776  69.9997  51.7097 0002957 259.0172 101.0692 15.69919575 20233,6737.264,91.724,361.121,357.137,0.0
56776.0,STARLINK-6274,PAYLOAD,2023-10-07 11:00:08,15.6991653,0.0003721,69.9976,50.098,282.9431,77.1349,-1.802e-05,-2.379e-05,0.0,0 STARLINK-6274,1 56776U 23078K   23280.45842775 -.00002379  00000-0 -18020-4 0  9996,2 56776  69.9976  50.0980 0003721 282.9431  77.1349 15.69916530 20584,6737.273,91.725,361.645,356.631,0.0
56776.0,STARLINK-6274,PAYLOAD,2023-10-07 12:31:53,15.69920351,0.0003743,69.9974,49.9186,282.8473,77.2304,-1.4095e-05,-1.907e-05,0.0,0 STARLINK-6274,1 56776U 23078K   23280.52214177 -.00001907  00000-0 -14095-4 0  9997,2 56776  69.9974  49.9186 0003743 282.8473  77.2304 15.69920351 20337,6737.262,91.724,361.649,356.605,0.0
56776.0,STARLINK-6274,PAYLOAD,2023-10-07 18:38:53,15.69919852,0.000285,69.9994,49.204,269.1752,90.9117,-1.2533e-05,-1.719e-05,0.0,0 STARLINK-6274,1 56776U 23078K   23280.77700890 -.00001719  00000-0 -12533-4 0  9992,2 56776  69.9994  49.2040 0002850 269.1752  90.9117 15.69919852 20638,6737.263,91.724,361.048,357.208,0.0
56776.0,STARLINK-6274,PAYLOAD,2023-10-07 20:10:37,15.69930234,0.00033,69.9979,49.0232,266.2212,93.8607,1.942e-05,2.123e-05,0.0,0 STARLINK-6274,1 56776U 23078K   23280.84071323  .00002123  00000-0  19420-4 0  9992,2 56776  69.9979  49.0232 0003300 266.2212  93.8607 15.69930234 20387,6737.234,91.724,361.322,356.875,0.0
56776.0,STARLINK-6274,PAYLOAD,2023-10-08 09:56:23,15.69930319,0.000367,69.9986,47.4108,261.3164,98.7616,9.982e-06,9.88e-06,0.0,0 STARLINK-6274,1 56776U 23078K   23281.41416449  .00000988  00000-0  99820-5 0  9998,2 56776  69.9986  47.4108 0003670 261.3164  98.7616 15.69930319 20738,6737.233,91.724,361.571,356.626,0.0
56776.0,STARLINK-6274,PAYLOAD,2023-10-08 14:31:39,15.69928008,0.0003665,69.9977,46.8733,269.9503,90.1273,4.4458e-06,3.22e-06,0.0,0 STARLINK-6274,1 56776U 23078K   23281.60531720  .00000322  00000-0  44458-5 0  9998,2 56776  69.9977  46.8733 0003665 269.9503  90.1273 15.69928008 20502,6737.24,91.724,361.574,356.636,0.0
56776.0,STARLINK-6274,PAYLOAD,2023-10-08 17:35:09,15.69925889,0.0003343,69.9983,46.5155,268.2845,91.7968,1.1003e-05,1.111e-05,0.0,0 STARLINK-6274,1 56776U 23078K   23281.73275068  .00001111  00000-0  11003-4 0  9998,2 56776  69.9983  46.5155 0003343 268.2845  91.7968 15.69925889 20522,6737.246,91.724,361.363,356.859,0.0
56776.0,STARLINK-6274,PAYLOAD,2023-10-09 08:52:41,15.69917517,0.0003261,69.9998,44.7234,267.4577,92.6246,1.6407e-06,-1.5e-07,0.0,0 STARLINK-6274,1 56776U 23078K   23282.36992619 -.00000015  00000-0  16407-5 0  9993,2 56776  69.9998  44.7234 0003261 267.4577  92.6246 15.69917517 20885,6737.27,91.725,361.332,356.938,0.0
56776.0,STARLINK-6274,PAYLOAD,2023-10-09 11:56:11,15.69922316,0.0002991,69.9997,44.365,269.0687,91.0166,-5.393e-06,-8.61e-06,0.0,0 STARLINK-6274,1 56776U 23078K   23282.49735894 -.00000861  00000-0 -53930-5 0  9999,2 56776  69.9997  44.3650 0002991 269.0687  91.0166 15.69922316 20642,6737.256,91.724,361.136,357.106,0.0
56776.0,STARLINK-6274,PAYLOAD,2023-10-09 18:03:11,15.6992372,0.0003559,69.9984,43.6496,271.026,89.0528,2.2983e-05,2.552e-05,0.0,0 STARLINK-6274,1 56776U 23078K   23282.75221898  .00002552  00000-0  22983-4 0  9992,2 56776  69.9984  43.6496 0003559 271.0260  89.0528 15.69923720 20941,6737.252,91.724,361.515,356.719,0.0
56776.0,STARLINK-6274,PAYLOAD,2023-10-09 19:34:56,15.69926451,0.0003242,69.9995,43.4698,263.3003,96.7824,3.0698e-05,3.48e-05,0.0,0 STARLINK-6274,1 56776U 23078K   23282.81593250  .00003480  00000-0  30698-4 0  9996,2 56776  69.9995  43.4698 0003242 263.3003  96.7824 15.69926451 20693,6737.244,91.724,361.294,356.925,0.0
